{
    "links": {
        "self": "http://www.neowsapp.com/rest/v1/neo/3646157?api_key=iIulBulltgU6a56xZRHN4H3l9WmuAYTsLGpBGhQ2"
    },
    "id": "3646157",
    "neo_reference_id": "3646157",
    "name": "(2013 QK6)",
    "designation": "2013 QK6",
    "nasa_jpl_url": "http://ssd.jpl.nasa.gov/sbdb.cgi?sstr=3646157",
    "absolute_magnitude_h": 22.8,
    "estimated_diameter": {
        "kilometers": {
            "estimated_diameter_min": 0.0732073989,
            "estimated_diameter_max": 0.1636967205
        },
        "meters": {
            "estimated_diameter_min": 73.2073989347,
            "estimated_diameter_max": 163.696720474
        },
        "miles": {
            "estimated_diameter_min": 0.0454889547,
            "estimated_diameter_max": 0.1017163949
        },
        "feet": {
            "estimated_diameter_min": 240.181762721,
            "estimated_diameter_max": 537.0627483999
        }
    },
    "is_potentially_hazardous_asteroid": false,
    "close_approach_data": [
        {
            "close_approach_date": "2013-08-20",
            "close_approach_date_full": "2013-Aug-20 17:50",
            "epoch_date_close_approach": 1377021000000,
            "relative_velocity": {
                "kilometers_per_second": "7.3609101104",
                "kilometers_per_hour": "26499.2763972737",
                "miles_per_hour": "16465.6198258504"
            },
            "miss_distance": {
                "astronomical": "0.16157819",
                "lunar": "62.85391591",
                "kilometers": "24171753.0624553",
                "miles": "15019630.88347114"
            },
            "orbiting_body": "Earth"
        }
    ],
    "orbital_data": {
        "orbit_id": "7",
        "orbit_determination_date": "2017-04-06 08:45:04",
        "first_observation_date": "2013-08-13",
        "last_observation_date": "2013-09-01",
        "data_arc_in_days": 19,
        "observations_used": 30,
        "orbit_uncertainty": "7",
        "minimum_orbit_intersection": ".156415",
        "jupiter_tisserand_invariant": "3.505",
        "epoch_osculation": "2459000.5",
        "eccentricity": ".4668717877135092",
        "semi_major_axis": "2.18394237765233",
        "inclination": "11.50148739495809",
        "ascending_node_longitude": "155.7811061519091",
        "orbital_period": "1178.854457916935",
        "perihelion_distance": "1.164321295534495",
        "perihelion_argument": "169.2820345817125",
        "aphelion_distance": "3.203563459770166",
        "perihelion_time": "2458880.476791328713",
        "mean_anomaly": "36.65283261346244",
        "mean_motion": ".3053812093446456",
        "equinox": "J2000",
        "orbit_class": {
            "orbit_class_type": "AMO",
            "orbit_class_description": "Near-Earth asteroid orbits similar to that of 1221 Amor",
            "orbit_class_range": "1.017 AU < q (perihelion) < 1.3 AU"
        }
    },
    "is_sentry_object": false
}